A/2021 E2,e,167.4890,190.8078,342.3307,216.6789,0.0003090,0.98946263,0.0000,12/10.1488/2020,2000,g 15.0,2.0
# From MPEC 2023-J29
C/2021 E3 (ZTF),h,06/11.8384/2022,112.5373,104.4817,228.8390,1.000654,1.777154,2000,8.5,4.0
# From MPEC 2023-SQ0
A/2021 E4,e,116.3622,171.1656,48.2640,547.9896,0.0000768,0.99146592,0.0000,04/25.0785/2022,2000,g 13.5,22.0
# From MPEC 2022-QD9
C/2021 F1 (Lemmon-PANSTARRS),e,107.3180,203.4697,146.8634,241.1242,0.0002632,0.99586588,0.0000,04/06.8100/2022,2000,g 13.5,4.0
# From MPEC 2021-J72
C/2021 G1 (Leonard),e,131.5471,270.6984,107.4453,73.03942,0.0015789,0.95311880,1.4043,12/28.0/2023,2000,g 14.0,4.0
# From MPEC 2023-Y70
C/2021 G2 (ATLAS),e,48.4748,221.0937,343.2981,22533,0.0000003,0.99977889,0.0000,09/09.3729/2024,2000,g  5.5,4.0
# From MPEC 2022-X67
C/2021 G3 (PANSTARRS),e,102.8703,147.3915,10.5844,19275,0.0000004,0.99973126,0.0000,10/17.9799/2021,2000,g 10.5,4.0
# From MPEC 2021-Y10
P/2021 HS (PANSTARRS),e,12.1579,262.3695,46.1371,4.194541,0.1147301,0.80963237,100.2757,12/28.0/2023,2000,g 22.0,4.0
# From MPEC 2022-C56
C/2021 J1 (Maury-Attard),e,92.7165,88.3962,147.2965,26.33359,0.0072935,0.93394609,7.5971,12/28.0/2023,2000,g 15.5,4.0
# From MPEC 2023-XP6
C/2021 J2 (PANSTARRS),e,156.2130,23.3337,171.9773,116.0525,0.0007884,0.95947295,0.6521,12/28.0/2023,2000,g 12.0,4.0
# From MPEC 2023-VM5
P/2021 J3 (ATLAS),e,14.5269,111.1212,125.9051,8.918812,0.0370036,0.44899646,60.6607,12/28.0/2023,2000,g  7.0,4.0
# From MPEC 2022-O08
C/2021 K1 (ATLAS),e,16.2741,140.9129,184.2740,12.65394,0.0218960,0.80243672,21.1976,12/28.0/2023,2000,g 11.0,4.0
# From MPEC 2022-O01
C/2021 K2 (MASTER),h,09/09.7316/2021,100.8581,282.3123,343.3500,1.000968,5.469076,2000,8.0,4.0
# From MPEC 2022-L66
C/2021 K3 (Catalina),h,02/03.9489/2022,134.7754,114.5734,182.0527,1.004401,5.232036,2000,10.0,4.0
# From MPEC 2021-W31
P/2021 L2 (Leonard),e,21.0657,266.6552,51.5052,4.048733,0.1209833,0.52089363,107.3156,12/28.0/2023,2000,g 17.0,4.0
# From MPEC 2023-M14
C/2021 L3 (Borisov),h,02/14.4792/2022,78.5696,344.9897,91.6248,1.004213,8.458375,2000,10.1,4.0
# From MPEC 2022-TA0
P/2021 N1 (ZTF),e,11.4918,301.1547,21.2372,2.978506,0.1917372,0.67610296,179.2377,12/28.0/2023,2000,g 19.0,4.0
# From MPEC 2023-W26
P/2021 N2 (Fuls),e,13.0612,221.7318,177.5172,6.941602,0.0538908,0.45261021,41.7019,12/28.0/2023,2000,g  9.5,4.0
# From MPEC 2022-YB4
C/2021 N3 (PANSTARRS),e,26.7454,337.4978,304.7365,147.7073,0.0005490,0.96129319,0.6733,12/28.0/2023,2000,g  8.5,4.0
# From MPEC 2022-A21
C/2021 O1 (Nishimura),e,27.5963,41.5968,74.3969,2588,0.0000075,0.99969690,0.0000,08/14.1760/2021,2000,g 10.5,4.0
# From MPEC 2022-L66
C/2021 O3 (PANSTARRS),h,04/21.0841/2022,56.7968,188.9857,299.9562,1.000046,0.286411,2000,10.5,4.0
# From MPEC 2022-CN4
C/2021 P1 (PANSTARRS),e,51.6388,359.7007,40.4688,2327,0.0000088,0.99811978,0.0000,06/02.5098/2022,2000,g 11.0,4.0
# From MPEC 2023-R20
C/2021 P2 (PANSTARRS),e,150.0633,32.0811,76.7130,3858,0.0000041,0.99868598,0.0000,01/22.9158/2023,2000,g  9.0,4.0
# From MPEC 2021-W31
P/2021 P3 (PANSTARRS),e,27.1613,358.2426,334.0920,4.412420,0.1063381,0.33881493,100.1870,12/28.0/2023,2000,g 14.0,4.0
# From MPEC 2023-A50
C/2021 P4 (ATLAS),e,56.3184,348.0771,175.7979,300.1648,0.0001895,0.99640254,0.0000,07/30.3393/2022,2000,g  9.5,4.0
# From MPEC 2023-E68
P/2021 PE20 (ATLAS),e,20.0034,99.6282,210.4715,3.745923,0.1359458,0.67008257,127.0173,12/28.0/2023,2000,g 17.0,4.0
# From MPEC 2023-FK0
C/2021 Q3 (ATLAS),e,77.7464,307.9152,114.1116,75.69169,0.0014967,0.93122987,1.0487,12/28.0/2023,2000,g  8.0,4.0
# From MPEC 2023-Y70
C/2021 Q4 (Fuls),h,06/11.1822/2023,71.4799,183.3297,147.0494,1.003005,7.564964,2000,6.0,4.0
# From MPEC 2022-C56
P/2021 Q5 (ATLAS),e,10.7388,239.7578,180.9259,3.286820,0.1654018,0.62464549,140.4612,12/28.0/2023,2000,g 15.0,4.0
# From MPEC 2023-XP6
C/2021 Q6 (PANSTARRS),h,03/24.8316/2024,161.8473,133.5347,141.0088,1.000592,8.707880,2000,6.0,4.0
# From MPEC 2023-FK0
C/2021 QM45 (PANSTARRS),e,22.8186,354.5947,72.8436,381.9208,0.0001321,0.99273613,0.0000,08/13.5944/2022,2000,g 11.0,4.0
# From MPEC 2022-X67
P/2021 R1 (PANSTARRS),e,5.5201,143.2792,220.2854,8.311548,0.0411321,0.41215961,30.5589,12/28.0/2023,2000,g 11.0,4.0
# From MPEC 2022-X67
C/2021 R2 (PANSTARRS),e,134.4830,16.3025,32.4844,3402,0.0000050,0.99784943,0.0000,12/27.4808/2021,2000,g  7.5,4.0
# From MPEC 2021-W31
P/2021 R3 (PANSTARRS),e,19.9309,304.1966,2.7280,3.771493,0.1345656,0.33100275,127.3549,12/28.0/2023,2000,g 16.0,4.0
# From MPEC 2021-W31
P/2021 R4 (Wierzchos),e,21.0295,321.2969,56.6959,5.624347,0.0738918,0.58590864,59.4787,12/28.0/2023,2000,g 16.0,4.0
# From MPEC 2022-Y15
P/2021 R5 (Rankin),e,7.8545,219.9544,167.5097,4.795182,0.0938634,0.30657543,67.0492,12/28.0/2023,2000,g 12.0,4.0
# From MPEC 2021-W31
P/2021 R6 (Groeller),e,34.9198,176.1573,220.7979,6.283606,0.0625735,0.59342517,49.2339,12/28.0/2023,2000,g 14.5,4.0
# From MPEC 2022-X67
C/2021 R7 (PANSTARRS),e,158.8606,170.1627,140.2956,860.5573,0.0000390,0.99343329,0.0000,04/16.5341/2021,2000,g 10.5,4.0
# From MPEC 2021-Y10
P/2021 R8 (Sheppard),e,2.2033,167.0745,190.8252,3.018688,0.1879216,0.29318637,152.5107,12/28.0/2023,2000,g 18.5,4.0
# From MPEC 2023-J29
C/2021 S1 (ATLAS),h,03/01.3773/2022,52.0590,299.8737,148.2207,1.002430,6.120183,2000,7.0,4.0
# From MPEC 2023-Y70
C/2021 S3 (PANSTARRS),h,02/14.7126/2024,58.5332,215.6209,6.8569,1.000272,1.320195,2000,5.5,4.0
# From MPEC 2023-Y70
C/2021 S4 (Tsuchinshan),e,17.4787,5.4888,72.8914,163.9168,0.0004696,0.95919105,359.9974,12/28.0/2023,2000,g  6.5,4.0
# From MPEC 2022-OB6
C/2021 T1 (Lemmon),e,140.3601,56.8453,51.5492,1699,0.0000141,0.99819919,0.0000,10/14.2913/2021,2000,g 12.5,4.0
# From MPEC 2023-A50
C/2021 T2 (Fuls),h,06/07.9937/2022,117.5399,223.2346,263.5932,1.000473,1.247184,2000,12.0,4.0
# From MPEC 2023-W26
C/2021 T4 (Lemmon),e,160.7775,257.8854,329.8212,24877,0.0000003,0.99994038,0.0000,07/31.5397/2023,2000,g  7.5,4.0
# From MPEC 2022-ED3
P/2021 U1 (Wierzchos),e,30.5519,246.7964,145.1394,8.530882,0.0395561,0.71304267,32.3503,12/28.0/2023,2000,g 14.5,4.0
# From MPEC 2022-L66
P/2021 U3 (Attard-Maury),e,69.9581,75.1004,335.2592,4.194409,0.1147355,0.54988009,91.1083,12/28.0/2023,2000,g 15.5,4.0
# From MPEC 2021-W31
C/2021 U4 (Leonard),e,152.8878,241.8084,237.3255,45.09746,0.0032544,0.96033376,2.3952,12/28.0/2023,2000,g 17.0,4.0
# From MPEC 2022-WQ9
C/2021 U5 (Catalina),e,39.0468,182.7427,321.4276,217.0411,0.0003082,0.98912117,0.0000,01/26.6251/2022,2000,g 13.0,4.0
# From MPEC 2022-CN4
C/2021 V1 (Rankin),e,71.4532,207.6684,195.1532,656.7044,0.0000586,0.99540850,0.0000,04/30.5407/2022,2000,g 13.0,4.0
# From MPEC 2023-KD6
P/2021 V2 (Fuls),e,12.6947,232.2763,259.8441,9.071383,0.0360740,0.61454723,12.2835,12/28.0/2023,2000,g 10.0,4.0
# From MPEC 2023-Y70
C/2021 X1 (Maury-Attard),h,05/27.1429/2023,140.0982,10.5920,334.5619,1.000412,3.233300,2000,7.0,4.0
# From MPEC 2023-A50
A/2021 X2,h,07/08.0755/2022,137.1613,228.8223,193.3025,1.000826,2.995222,2000,16.0,2.0
# From MPEC 2023-XP6
C/2021 Y1 (ATLAS),h,04/30.7353/2023,77.1923,244.7679,245.8283,1.001046,2.032490,2000,7.0,4.0
# From MPEC 2022-YN2
C/2022 A1 (Sarneczky),e,116.5265,285.5133,201.2342,349.8040,0.0001506,0.99641580,0.0000,01/31.0720/2022,2000,g 18.0,4.0
# From MPEC 2023-Y70
C/2022 A2 (PANSTARRS),h,02/18.2586/2023,108.1329,171.5834,88.3706,1.000358,1.735401,2000,9.5,4.0
# From MPEC 2023-Y70
C/2022 A3 (Lemmon-ATLAS),e,88.3413,325.4767,234.8493,870.0398,0.0000384,0.99574326,0.0000,09/28.8631/2023,2000,g  8.0,4.0
# From MPEC 2022-K19
P/2022 B1 (Wierzchos),e,10.9898,325.4438,148.8604,5.466802,0.0771088,0.65329231,51.7037,12/28.0/2023,2000,g 16.5,4.0
# From MPEC 2022-YB4
A/2022 B3,e,132.0528,286.1859,150.6954,752.9401,0.0000477,0.99508620,0.0000,01/17.3543/2022,2000,g 16.5,2.0
# From MPEC 2022-GA9
C/2022 B4 (Bok),e,20.0455,340.6184,152.9428,382.2038,0.0001319,0.99639538,0.0000,01/29.9949/2022,2000,g 21.0,4.0
# From MPEC 2023-J29
P/2022 BV9 (Lemmon),e,11.9309,337.3080,16.2993,4.362682,0.1081618,0.23442247,125.4735,12/28.0/2023,2000,g  9.5,4.0
# From MPEC 2023-J29
P/2022 C1 (PANSTARRS),e,4.7622,113.1233,9.3542,7.225903,0.0507418,0.44859684,39.7545,12/28.0/2023,2000,g 12.0,4.0
# From MPEC 2023-VM5
P/2022 C2 (PANSTARRS),e,9.9818,135.2609,89.2393,6.038186,0.0664270,0.44193394,33.7999,12/28.0/2023,2000,g 12.5,4.0
# From MPEC 2023-UR6
P/2022 C3 (PANSTARRS),e,12.8191,139.0433,93.8941,9.627114,0.0329959,0.54569396,17.9919,12/28.0/2023,2000,g 11.5,4.0
# From MPEC 2022-K19
P/2022 D1 (PANSTARRS),e,44.0780,47.9586,88.6641,7.402891,0.0489330,0.54744821,41.6856,12/28.0/2023,2000,g 12.5,4.0
# From MPEC 2022-K19
C/2022 D2 (Kowalski),e,22.6601,312.4270,177.7937,371.1242,0.0001379,0.99581344,0.0000,03/27.6534/2022,2000,g 17.0,4.0
# From MPEC 2023-Y70
C/2022 E2 (ATLAS),h,09/14.0685/2024,137.1257,125.3704,41.7061,1.000732,3.666532,2000,5.0,4.0
# From MPEC 2023-Y70
C/2022 E3 (ZTF),h,01/12.7535/2023,109.1683,302.5535,145.8121,1.000141,1.112347,2000,7.5,4.0
# From MPEC 2023-R20
C/2022 F1 (ATLAS),e,57.9791,350.6471,278.2893,4703,0.0000031,0.99872947,0.0000,08/05.2270/2022,2000,g  7.0,4.0
# From MPEC 2022-QD9
C/2022 F2 (NEOWISE),e,97.3122,58.7843,200.6209,24.04135,0.0083611,0.93395047,5.3901,12/28.0/2023,2000,g 14.5,4.0
# From MPEC 2023-J95
C/2022 H1 (PANSTARRS),e,49.8371,6.3405,246.1508,727.1057,0.0000503,0.98941452,0.0000,01/17.1448/2024,2000,g  6.0,4.0
# From MPEC 2022-VC5
C/2022 J1 (Maury-Attard),e,105.9490,280.7566,305.6658,47.62468,0.0029989,0.96632055,2.0300,12/28.0/2023,2000,g 14.9,4.0
# From MPEC 2023-M14
C/2022 J2 (Bok),e,149.1355,252.6405,133.0845,91.65997,0.0011231,0.98008165,0.0000,10/27.0401/2022,2000,g  9.0,4.0
# From MPEC 2023-Y70
C/2022 JK5 (PANSTARRS),e,16.8315,59.6476,247.1942,43.43184,0.0034434,0.93812425,0.8370,12/28.0/2023,2000,g 11.0,4.0
# From MPEC 2022-ST7
C/2022 K1 (Leonard),h,12/17.3648/2021,41.9634,136.3330,142.6465,1.002191,3.989044,2000,11.0,4.0
# From MPEC 2023-CD7
C/2022 L1 (Catalina),e,123.4550,300.0325,59.8431,515.0173,0.0000843,0.99691049,0.0000,09/28.2212/2022,2000,g 15.8,4.0
